FLOCK 2K-43             
1 42874U 17042BB  17306.67926639  .00002187  00000-0  69340-4 0  9998
2 42874  96.9952 209.7612 0012309 192.6545 167.4391 15.33646303 16878
FLOCK 2K-41             
1 42875U 17042BC  17306.79089091  .00004100  00000-0  12483-3 0  9996
2 42875  96.9949 209.9060 0011786 191.8039 168.2930 15.34454350 16891
FLOCK 2K-36             
1 42876U 17042BD  17306.78759781  .00006177  00000-0  18711-3 0  9992
2 42876  96.9954 209.9135 0012058 191.8941 168.2020 15.34422597 16894
FLOCK 2K-35             
1 42877U 17042BE  17306.78947492  .00004291  00000-0  13061-3 0  9999
2 42877  96.9949 209.9102 0011900 192.0156 168.0806 15.34440621 16897
FLOCK 2K-34             
1 42878U 17042BF  17306.78607553  .00002868  00000-0  88069-4 0  9990
2 42878  96.9950 209.9098 0012048 192.3596 167.7355 15.34418599 16893
FLOCK 2K-33             
1 42879U 17042BG  17306.78338238  .00002324  00000-0  71726-4 0  9991
2 42879  96.9948 209.9138 0012126 192.0099 168.0858 15.34441850 16896
FLOCK 2K-28             
1 42880U 17042BH  17306.80647891  .00002124  00000-0  67363-4 0  9994
2 42880  96.9953 209.8907 0012310 192.4451 167.6491 15.33660248 16899
LEMUR-2-ARTFISCHER      
1 42881U 17042BJ  17306.92532890  .00004892  00000-0  15006-3 0  9990
2 42881  96.9979 210.0623 0012742 194.2448 165.8438 15.34119917 16908
FLOCK 2K-27             
1 42882U 17042BK  17306.78164586  .00004841  00000-0  14704-3 0  9996
2 42882  96.9954 209.9204 0012173 192.5168 167.5776 15.34443285 16892
FLOCK 2K-26             
1 42883U 17042BL  17306.77875758  .00011309  00000-0  34067-3 0  9997
2 42883  96.9951 209.9219 0012087 191.4496 168.6474 15.34412016 16897
FLOCK 2K-25             
1 42884U 17042BM  17306.78493697  .00005242  00000-0  15919-3 0  9991
2 42884  96.9948 209.9100 0012130 191.6990 168.3974 15.34412253 16898
FLOCK 2K-20             
1 42885U 17042BN  17306.25562357  .00004058  00000-0  12366-3 0  9991
2 42885  96.9950 209.4312 0012112 193.4573 166.6349 15.34432988 16815
FLOCK 2K-19             
1 42886U 17042BP  17306.78040794  .00005160  00000-0  15652-3 0  9992
2 42886  96.9954 209.9228 0012244 191.5759 168.5206 15.34452800 16898
FLOCK 2K-18             
1 42887U 17042BQ  17306.63861069  .00002459  00000-0  75554-4 0  9999
2 42887  96.9950 209.8104 0012585 191.4046 168.6914 15.34528869 16877
FLOCK 2K-17             
1 42888U 17042BR  17306.77304821  .00009755  00000-0  29381-3 0  9995
2 42888  96.9947 209.9244 0012359 190.6513 169.4471 15.34450362 16890
FLOCK 2K-16             
1 42889U 17042BS  17306.90559021  .00005583  00000-0  16892-3 0  9993
2 42889  96.9953 210.0528 0012056 189.8052 170.2959 15.34502901 16919
FLOCK 2K-15             
1 42890U 17042BT  17306.63769445  .00005517  00000-0  16673-3 0  9992
2 42890  96.9957 209.8184 0012554 190.7488 169.3490 15.34539454 16873
FLOCK 2K-13             
1 42891U 17042BU  17306.77587477  .00004795  00000-0  14581-3 0  9994
2 42891  96.9951 209.9260 0012420 188.1991 171.9052 15.34406373 16894
FLOCK 2K-14             
1 42892U 17042BV  17306.77065968  .00003901  00000-0  11867-3 0  9993
2 42892  96.9947 209.9273 0012556 189.5602 170.5405 15.34505381 16894
FLOCK 2K-12             
1 42893U 17042BW  17306.63516588  .00002858  00000-0  87242-4 0  9999
2 42893  96.9952 209.8173 0012648 190.3540 169.7445 15.34610531 16878
FLOCK 2K-11             
1 42894U 17042BX  17306.77204135  .00003243  00000-0  99145-4 0  9991
2 42894  96.9955 209.9339 0012567 187.2768 172.8296 15.34467657 16894
FLOCK 2K-10             
1 42895U 17042BY  17306.63622821  .00007756  00000-0  23332-3 0  9990
2 42895  96.9949 209.8091 0012763 188.8338 171.2684 15.34553069 16875
FLOCK 2K-09             
1 42896U 17042BZ  17306.63282811  .00007200  00000-0  21664-3 0  9992
2 42896  96.9954 209.8185 0012539 187.7228 172.3825 15.34574662 17044
FLOCK 2K-06             
1 42897U 17042CA  17306.80120169  .00006286  00000-0  19064-3 0  9993
2 42897  96.9952 209.8956 0010224 202.2078 157.8725 15.34397393 16897
SILU-1 (SILKROAD 1)     
1 42903U 17021F   17306.81343308  .00021033  00000-0  23280-3 0  9993
2 42903  42.7807 249.8903 0007281 163.1133 288.0059 15.62548533 14413
FLOCK 3M-1              
1 42995U 17068J   17306.91997346  .00001109  00000-0  57722-4 0  9994
2 42995  97.3414  61.0633 0017051 213.7774 146.2375 15.17939379   308
FLOCK 3M-3              
1 42996U 17068K   17306.91976577  .00001492  00000-0  76225-4 0  9992
2 42996  97.3370  61.0606 0016372 214.4040 145.6136 15.18097923   308
FLOCK 3M-4              
1 42997U 17068L   17306.91965814  .00001616  00000-0  82099-4 0  9999
2 42997  97.3582  61.0760 0016105 215.5167 144.4996 15.18178410   303
FLOCK 3M-2              
1 42998U 17068M   17306.87140840  .00001186  00000-0  60656-4 0  9996
2 42998  97.3475  61.0200 0014413 210.4040 248.1429 15.18475797   297
